{
    "links": {
        "self": "http://www.neowsapp.com/rest/v1/neo/3384184?api_key=iIulBulltgU6a56xZRHN4H3l9WmuAYTsLGpBGhQ2"
    },
    "id": "3384184",
    "neo_reference_id": "3384184",
    "name": "(2007 RS12)",
    "designation": "2007 RS12",
    "nasa_jpl_url": "http://ssd.jpl.nasa.gov/sbdb.cgi?sstr=3384184",
    "absolute_magnitude_h": 23.2,
    "estimated_diameter": {
        "kilometers": {
            "estimated_diameter_min": 0.0608912622,
            "estimated_diameter_max": 0.1361570015
        },
        "meters": {
            "estimated_diameter_min": 60.8912622106,
            "estimated_diameter_max": 136.1570015386
        },
        "miles": {
            "estimated_diameter_min": 0.0378360645,
            "estimated_diameter_max": 0.0846040122
        },
        "feet": {
            "estimated_diameter_min": 199.7744887109,
            "estimated_diameter_max": 446.7093369279
        }
    },
    "is_potentially_hazardous_asteroid": false,
    "close_approach_data": [
        {
            "close_approach_date": "1982-09-03",
            "close_approach_date_full": "1982-Sep-03 05:47",
            "epoch_date_close_approach": 399880020000,
            "relative_velocity": {
                "kilometers_per_second": "6.1505394456",
                "kilometers_per_hour": "22141.9420040997",
                "miles_per_hour": "13758.1416858251"
            },
            "miss_distance": {
                "astronomical": "0.2394091186",
                "lunar": "93.1301471354",
                "kilometers": "35815094.201137382",
                "miles": "22254467.5832125916"
            },
            "orbiting_body": "Earth"
        },
        {
            "close_approach_date": "2007-09-04",
            "close_approach_date_full": "2007-Sep-04 17:44",
            "epoch_date_close_approach": 1188927840000,
            "relative_velocity": {
                "kilometers_per_second": "5.4549085534",
                "kilometers_per_hour": "19637.6707921532",
                "miles_per_hour": "12202.0849430465"
            },
            "miss_distance": {
                "astronomical": "0.1906281379",
                "lunar": "74.1543456431",
                "kilometers": "28517563.391906273",
                "miles": "17719992.2047736474"
            },
            "orbiting_body": "Earth"
        },
        {
            "close_approach_date": "2032-09-04",
            "close_approach_date_full": "2032-Sep-04 09:32",
            "epoch_date_close_approach": 1977903120000,
            "relative_velocity": {
                "kilometers_per_second": "5.4409787245",
                "kilometers_per_hour": "19587.5234080348",
                "miles_per_hour": "12170.9253087314"
            },
            "miss_distance": {
                "astronomical": "0.1843672582",
                "lunar": "71.7188634398",
                "kilometers": "27580949.124460034",
                "miles": "17138007.0859911092"
            },
            "orbiting_body": "Earth"
        }
    ],
    "orbital_data": {
        "orbit_id": "12",
        "orbit_determination_date": "2017-04-06 09:06:04",
        "first_observation_date": "2007-09-12",
        "last_observation_date": "2007-10-18",
        "data_arc_in_days": 36,
        "observations_used": 36,
        "orbit_uncertainty": "6",
        "minimum_orbit_intersection": ".163346",
        "jupiter_tisserand_invariant": "3.569",
        "epoch_osculation": "2459000.5",
        "eccentricity": ".4527242649277383",
        "semi_major_axis": "2.136881394622016",
        "inclination": "6.958935762988314",
        "ascending_node_longitude": "172.3785954858717",
        "orbital_period": "1140.956412413929",
        "perihelion_distance": "1.169463336004004",
        "perihelion_argument": "170.8129860255026",
        "aphelion_distance": "3.104299453240029",
        "perihelion_time": "2458910.538359267512",
        "mean_anomaly": "28.38512524345782",
        "mean_motion": ".3155247615799323",
        "equinox": "J2000",
        "orbit_class": {
            "orbit_class_type": "AMO",
            "orbit_class_description": "Near-Earth asteroid orbits similar to that of 1221 Amor",
            "orbit_class_range": "1.017 AU < q (perihelion) < 1.3 AU"
        }
    },
    "is_sentry_object": false
}